NORAD_CAT_ID,OBJECT_NAME,OBJECT_TYPE,EPOCH,MEAN_MOTION,ECCENTRICITY,INCLINATION,RA_OF_ASC_NODE,ARG_OF_PERICENTER,MEAN_ANOMALY,BSTAR,MEAN_MOTION_DOT,MEAN_MOTION_DDOT,TLE_LINE0,TLE_LINE1,TLE_LINE2,SEMIMAJOR_AXIS,PERIOD,APOGEE,PERIGEE,DECAYED
52670.0,STARLINK-4075,PAYLOAD,2022-11-16 18:45:15,15.08840222,0.0002355,53.2159,181.1309,37.5375,322.5781,9.9486e-06,-1.3e-06,0.0,0 STARLINK-4075,1 52670U 22053Q   22320.78142961 -.00000130  00000-0  99486-5 0  9995,2 52670  53.2159 181.1309 0002355  37.5375 322.5781 15.08840222 28544,6917.88,95.438,541.374,538.116,0.0
52670.0,STARLINK-4075,PAYLOAD,2022-11-17 01:06:48,15.08835328,0.0002382,53.2158,179.9417,36.5958,323.5196,-6.743399999999999e-05,-1.361e-05,0.0,0 STARLINK-4075,1 52670U 22053Q   22321.04639246 -.00001361  00000-0 -67434-4 0  9997,2 52670  53.2158 179.9417 0002382  36.5958 323.5196 15.08835328 28142,6917.895,95.438,541.408,538.112,0.0
52670.0,STARLINK-4075,PAYLOAD,2022-11-17 07:28:20,15.08840261,0.0002353,53.2165,178.7522,36.4498,323.6654,3.7654e-05,3.11e-06,0.0,0 STARLINK-4075,1 52670U 22053Q   22321.31135351  .00000311  00000-0  37654-4 0  9998,2 52670  53.2165 178.7522 0002353  36.4498 323.6654 15.08840261 28625,6917.88,95.438,541.372,538.117,0.0
52670.0,STARLINK-4075,PAYLOAD,2022-11-18 00:57:35,15.08842237,0.0002394,53.2163,175.481,36.5046,323.6109,9.509e-05,1.225e-05,0.0,0 STARLINK-4075,1 52670U 22053Q   22322.03999062  .00001225  00000-0  95090-4 0  9998,2 52670  53.2163 175.4810 0002394  36.5046 323.6109 15.08842237 28295,6917.874,95.437,541.395,538.082,0.0
52670.0,STARLINK-4075,PAYLOAD,2022-11-19 00:48:22,15.08837175,0.000246,53.2163,171.0205,37.1496,322.9666,0.00010095,1.319e-05,0.0,0 STARLINK-4075,1 52670U 22053Q   22323.03359494  .00001319  00000-0  10095-3 0  9993,2 52670  53.2163 171.0205 0002460  37.1496 322.9666 15.08837175 28447,6917.889,95.438,541.456,538.052,0.0
52670.0,STARLINK-4075,PAYLOAD,2022-11-19 07:09:55,15.08836311,0.0002423,53.2164,169.8312,37.1036,323.0123,6.8685e-05,8.05e-06,0.0,0 STARLINK-4075,1 52670U 22053Q   22323.29855726  .00000805  00000-0  68685-4 0  9998,2 52670  53.2164 169.8312 0002423  37.1036 323.0123 15.08836311 28925,6917.892,95.438,541.433,538.08,0.0
52670.0,STARLINK-4075,PAYLOAD,2022-11-20 07:00:41,15.08846899,0.000241,53.2165,165.3705,37.4039,322.712,6.8022e-05,7.95e-06,0.0,0 STARLINK-4075,1 52670U 22053Q   22324.29214938  .00000795  00000-0  68022-4 0  9996,2 52670  53.2165 165.3705 0002410  37.4039 322.7120 15.08846899 28638,6917.859,95.437,541.3919999999998,538.057,0.0
52670.0,STARLINK-4075,PAYLOAD,2022-11-20 13:22:14,15.08846534,0.0002412,53.2166,164.1811,37.561,322.555,7.4569e-05,8.99e-06,0.0,0 STARLINK-4075,1 52670U 22053Q   22324.55710840  .00000899  00000-0  74569-4 0  9996,2 52670  53.2166 164.1811 0002412  37.5610 322.5550 15.08846534 29117,6917.86,95.437,541.394,538.057,0.0
52670.0,STARLINK-4075,PAYLOAD,2022-11-20 19:43:46,15.08842928,0.0002385,53.2167,162.9918,37.8362,322.2798,0.00012954,1.774e-05,0.0,0 STARLINK-4075,1 52670U 22053Q   22324.82206797  .00001774  00000-0  12954-3 0  9999,2 52670  53.2167 162.9918 0002385  37.8362 322.2798 15.08842928 29156,6917.871,95.437,541.386,538.087,0.0
52670.0,STARLINK-4075,PAYLOAD,2022-11-20 22:54:33,15.088343099999998,0.0002395,53.2162,162.3969,37.1297,322.986,6.1788e-05,6.95e-06,0.0,0 STARLINK-4075,1 52670U 22053Q   22324.95455553  .00000695  00000-0  61788-4 0  9990,2 52670  53.2162 162.3969 0002395  37.1297 322.9860 15.08834310 28738,6917.898,95.438,541.42,538.106,0.0
52670.0,STARLINK-4075,PAYLOAD,2022-11-21 13:13:02,15.08834956,0.0002405,53.2158,159.7201,38.5965,321.5198,3.9487e-05,3.4e-06,0.0,0 STARLINK-4075,1 52670U 22053Q   22325.55071867  .00000340  00000-0  39487-4 0  9997,2 52670  53.2158 159.7201 0002405  38.5965 321.5198 15.08834956 29265,6917.896,95.438,541.425,538.097,0.0
52670.0,STARLINK-4075,PAYLOAD,2022-11-21 19:34:34,15.08837085,0.0002464,53.2158,158.5309,38.7814,321.3355,4.2784e-05,3.93e-06,0.0,0 STARLINK-4075,1 52670U 22053Q   22325.81567765  .00000393  00000-0  42784-4 0  9995,2 52670  53.2158 158.5309 0002464  38.7814 321.3355 15.08837085 29305,6917.889,95.438,541.4590000000002,538.05,0.0
52670.0,STARLINK-4075,PAYLOAD,2022-11-22 13:03:48,15.0884188,0.0002519,53.2154,155.2596,41.1812,318.937,2.6411e-05,1.32e-06,0.0,0 STARLINK-4075,1 52670U 22053Q   22326.54431579  .00000132  00000-0  26411-4 0  9999,2 52670  53.2154 155.2596 0002519  41.1812 318.9370 15.08841880 29419,6917.875,95.437,541.482,537.997,0.0
52670.0,STARLINK-4075,PAYLOAD,2022-11-22 17:49:58,15.08840081,0.0002428,53.2157,154.3683,39.4172,320.6996,7.6994e-05,9.37e-06,0.0,0 STARLINK-4075,1 52670U 22053Q   22326.74303551  .00000937  00000-0  76994-4 0  9993,2 52670  53.2157 154.3683 0002428  39.4172 320.6996 15.08840081 29008,6917.88,95.438,541.425,538.065,0.0
52670.0,STARLINK-4075,PAYLOAD,2022-11-22 19:25:21,15.08841116,0.0002607,53.2161,154.0705,40.9359,319.1828,4.692399999999999e-05,4.58e-06,0.0,0 STARLINK-4075,1 52670U 22053Q   22326.80927514  .00000458  00000-0  46924-4 0  9999,2 52670  53.2161 154.0705 0002607  40.9359 319.1828 15.08841116 29454,6917.877,95.437,541.545,537.938,0.0
52670.0,STARLINK-4075,PAYLOAD,2022-11-23 12:54:35,15.08840341,0.000258,53.2161,150.7995,42.1331,317.9859,0.00012084,1.635e-05,0.0,0 STARLINK-4075,1 52670U 22053Q   22327.53791473  .00001635  00000-0  12084-3 0  9990,2 52670  53.2161 150.7995 0002580  42.1331 317.9859 15.08840341 29563,6917.879,95.438,541.529,537.96,0.0
52670.0,STARLINK-4075,PAYLOAD,2022-11-23 17:40:45,15.08842022,0.0002593,53.2163,149.9075,42.3831,317.7361,0.00012934,1.771e-05,0.0,0 STARLINK-4075,1 52670U 22053Q   22327.73663362  .00001771  00000-0  12934-3 0  9992,2 52670  53.2163 149.9075 0002593  42.3831 317.7361 15.08842022 29592,6917.874,95.437,541.533,537.945,0.0
52670.0,STARLINK-4075,PAYLOAD,2022-11-23 22:26:54,15.08843732,0.0002609,53.2163,149.0153,42.5535,317.5659,0.00012062,1.632e-05,0.0,0 STARLINK-4075,1 52670U 22053Q   22327.93535230  .00001632  00000-0  12062-3 0  9994,2 52670  53.2163 149.0153 0002609  42.5535 317.5659 15.08843732 29183,6917.869000000002,95.437,541.539,537.929,0.0
52670.0,STARLINK-4075,PAYLOAD,2022-11-24 11:09:59,15.08844786,0.000264,53.2163,146.6365,43.924,316.1962,0.00011213,1.497e-05,0.0,0 STARLINK-4075,1 52670U 22053Q   22328.46527161  .00001497  00000-0  11213-3 0  9993,2 52670  53.2163 146.6365 0002640  43.9240 316.1962 15.08844786 29704,6917.866,95.437,541.557,537.904,0.0
52670.0,STARLINK-4075,PAYLOAD,2022-11-24 19:06:55,15.08839868,0.0002668,53.2167,145.1496,45.2599,314.861,3.6937e-05,2.99e-06,0.0,0 STARLINK-4075,1 52670U 22053Q   22328.79647740  .00000299  00000-0  36937-4 0  9995,2 52670  53.2167 145.1496 0002668  45.2599 314.8610 15.08839868 29316,6917.880999999999,95.438,541.591,537.9,0.0
52670.0,STARLINK-4075,PAYLOAD,2022-11-25 12:36:10,15.08838498,0.0002552,53.2161,141.8783,44.475,315.6447,-2.3042e-05,-6.55e-06,0.0,0 STARLINK-4075,1 52670U 22053Q   22329.52512037 -.00000655  00000-0 -23042-4 0  9998,2 52670  53.2161 141.8783 0002552  44.4750 315.6447 15.08838498 29869,6917.885,95.438,541.515,537.985,0.0
52670.0,STARLINK-4075,PAYLOAD,2022-11-25 17:22:19,15.088396,0.0002551,53.2163,140.9862,45.0366,315.0832,-1.6057e-05,-5.44e-06,0.0,0 STARLINK-4075,1 52670U 22053Q   22329.72383936 -.00000544  00000-0 -16057-4 0  9999,2 52670  53.2163 140.9862 0002551  45.0366 315.0832 15.08839600 29899,6917.882,95.438,541.511,537.982,0.0
52670.0,STARLINK-4075,PAYLOAD,2022-11-25 22:08:29,15.08840534,0.0002572,53.2163,140.0941,45.2735,314.8467,-7.0405e-06,-4.01e-06,0.0,0 STARLINK-4075,1 52670U 22053Q   22329.92255866 -.00000401  00000-0 -70405-5 0  9991,2 52670  53.2163 140.0941 0002572  45.2735 314.8467 15.08840534 29487,6917.879,95.438,541.523,537.964,0.0
52670.0,STARLINK-4075,PAYLOAD,2022-11-26 12:26:57,15.08836315,0.0002628999999999,53.2167,137.4176,45.7343,314.3865,0.00011106,1.479e-05,0.0,0 STARLINK-4075,1 52670U 22053Q   22330.51871761  .00001479  00000-0  11106-3 0  9991,2 52670  53.2167 137.4176 0002629  45.7343 314.3865 15.08836315 30014,6917.892,95.438,541.575,537.938,0.0
52670.0,STARLINK-4075,PAYLOAD,2022-11-26 20:23:52,15.08839087,0.0002663,53.2166,135.9307,45.955,314.1662,0.00012475,1.698e-05,0.0,0 STARLINK-4075,1 52670U 22053Q   22330.84991649  .00001698  00000-0  12475-3 0  9998,2 52670  53.2166 135.9307 0002663  45.9550 314.1662 15.08839087 30069,6917.8830000000025,95.438,541.59,537.906,0.0
52670.0,STARLINK-4075,PAYLOAD,2022-11-27 04:20:48,15.0884232,0.0002674,53.2166,134.4439,46.371,313.7504,0.00013726,1.897e-05,0.0,0 STARLINK-4075,1 52670U 22053Q   22331.18111439  .00001897  00000-0  13726-3 0  9998,2 52670  53.2166 134.4439 0002674  46.3710 313.7504 15.08842320 29673,6917.873000000001,95.437,541.5880000000002,537.888,0.0
52670.0,STARLINK-4075,PAYLOAD,2022-11-27 10:42:20,15.08842943,0.0002663,53.2165,133.2543,46.7004,313.421,0.00012686,1.731e-05,0.0,0 STARLINK-4075,1 52670U 22053Q   22331.44607343  .00001731  00000-0  12686-3 0  9992,2 52670  53.2165 133.2543 0002663  46.7004 313.4210 15.08842943 30150,6917.871,95.437,541.5790000000002,537.894,0.0
52670.0,STARLINK-4075,PAYLOAD,2022-11-27 20:14:39,15.08838629,0.0002707,53.2171,131.4719,35.0271,325.0899,0.00010351,1.359e-05,0.0,0 STARLINK-4075,1 52670U 22053Q   22331.84351694  .00001359  00000-0  10351-3 0  9994,2 52670  53.2171 131.4719 0002707  35.0271 325.0899 15.08838629 30213,6917.885,95.438,541.622,537.877,0.0
52670.0,STARLINK-4075,PAYLOAD,2022-11-28 10:33:08,15.08836286,0.000225,53.2171,128.7955,44.1059,316.0112,2.6284e-05,1.3e-06,0.0,0 STARLINK-4075,1 52670U 22053Q   22332.43967991  .00000130  00000-0  26284-4 0  9992,2 52670  53.2171 128.7955 0002250  44.1059 316.0112 15.08836286 30307,6917.892,95.438,541.313,538.2,0.0
